{"fetched_at":"2026-07-19T17:31:13.022Z","source":"https://celestrak.org/NORAD/elements/gp.php?GROUP=qianfan&FORMAT=JSON","constellation":"qianfan","records":[{"OBJECT_NAME":"QIANFAN-129","OBJECT_ID":"2026-104C","EPOCH":"2026-07-18T21:40:05.242080","CLASSIFICATION_TYPE":"U","MEAN_MOTION":13.54047251,"ECCENTRICITY":0.00089557,"INCLINATION":88.9898,"RA_OF_ASC_NODE":338.2018,"ARG_OF_PERICENTER":35.1887,"MEAN_ANOMALY":324.9856,"EPHEMERIS_TYPE":0,"NORAD_CAT_ID":69075,"ELEMENT_SET_NO":999,"REV_AT_EPOCH":945,"BSTAR":-2.8594452,"MEAN_MOTION_DOT":-0.01809941,"MEAN_MOTION_DDOT":0},{"OBJECT_NAME":"QIANFAN-130","OBJECT_ID":"2026-104D","EPOCH":"2026-07-18T21:46:17.419584","CLASSIFICATION_TYPE":"U","MEAN_MOTION":13.47146837,"ECCENTRICITY":0.00051369,"INCLINATION":88.9901,"RA_OF_ASC_NODE":338.2581,"ARG_OF_PERICENTER":271.2929,"MEAN_ANOMALY":88.7632,"EPHEMERIS_TYPE":0,"NORAD_CAT_ID":69076,"ELEMENT_SET_NO":999,"REV_AT_EPOCH":942,"BSTAR":-3.1566984,"MEAN_MOTION_DOT":-0.01794504,"MEAN_MOTION_DDOT":0},{"OBJECT_NAME":"QIANFAN-131","OBJECT_ID":"2026-104E","EPOCH":"2026-07-19T07:29:54.841056","CLASSIFICATION_TYPE":"U","MEAN_MOTION":13.52873435,"ECCENTRICITY":0.00125654,"INCLINATION":88.9888,"RA_OF_ASC_NODE":338.1854,"ARG_OF_PERICENTER":6.0188,"MEAN_ANOMALY":354.1113,"EPHEMERIS_TYPE":0,"NORAD_CAT_ID":69077,"ELEMENT_SET_NO":999,"REV_AT_EPOCH":949,"BSTAR":-2.895581,"MEAN_MOTION_DOT":-0.01800367,"MEAN_MOTION_DDOT":0},{"OBJECT_NAME":"QIANFAN-132","OBJECT_ID":"2026-104F","EPOCH":"2026-07-18T21:57:59.501664","CLASSIFICATION_TYPE":"U","MEAN_MOTION":13.46809849,"ECCENTRICITY":0.00073735,"INCLINATION":88.9896,"RA_OF_ASC_NODE":338.2773,"ARG_OF_PERICENTER":162.1104,"MEAN_ANOMALY":198.0305,"EPHEMERIS_TYPE":0,"NORAD_CAT_ID":69078,"ELEMENT_SET_NO":999,"REV_AT_EPOCH":941,"BSTAR":-3.0577575,"MEAN_MOTION_DOT":-0.01733275,"MEAN_MOTION_DDOT":0},{"OBJECT_NAME":"QIANFAN-133","OBJECT_ID":"2026-104G","EPOCH":"2026-07-18T21:33:57.272256","CLASSIFICATION_TYPE":"U","MEAN_MOTION":13.52401034,"ECCENTRICITY":0.0006949,"INCLINATION":88.9898,"RA_OF_ASC_NODE":338.2389,"ARG_OF_PERICENTER":20.9662,"MEAN_ANOMALY":339.1774,"EPHEMERIS_TYPE":0,"NORAD_CAT_ID":69079,"ELEMENT_SET_NO":999,"REV_AT_EPOCH":942,"BSTAR":-2.3684824,"MEAN_MOTION_DOT":-0.01465441,"MEAN_MOTION_DDOT":0},{"OBJECT_NAME":"QIANFAN-134","OBJECT_ID":"2026-104H","EPOCH":"2026-07-18T23:13:15.185568","CLASSIFICATION_TYPE":"U","MEAN_MOTION":13.54004893,"ECCENTRICITY":0.00119635,"INCLINATION":88.99,"RA_OF_ASC_NODE":338.2477,"ARG_OF_PERICENTER":13.7858,"MEAN_ANOMALY":346.3619,"EPHEMERIS_TYPE":0,"NORAD_CAT_ID":69080,"ELEMENT_SET_NO":999,"REV_AT_EPOCH":943,"BSTAR":-2.9359225,"MEAN_MOTION_DOT":-0.01854369,"MEAN_MOTION_DDOT":0},{"OBJECT_NAME":"QIANFAN-135","OBJECT_ID":"2026-104J","EPOCH":"2026-07-18T20:40:13.647648","CLASSIFICATION_TYPE":"U","MEAN_MOTION":13.51078767,"ECCENTRICITY":0.00084217,"INCLINATION":88.9896,"RA_OF_ASC_NODE":338.2502,"ARG_OF_PERICENTER":18.3494,"MEAN_ANOMALY":341.796,"EPHEMERIS_TYPE":0,"NORAD_CAT_ID":69081,"ELEMENT_SET_NO":999,"REV_AT_EPOCH":942,"BSTAR":-3.0749585,"MEAN_MOTION_DOT":-0.0185456,"MEAN_MOTION_DDOT":0},{"OBJECT_NAME":"QIANFAN-136","OBJECT_ID":"2026-104K","EPOCH":"2026-07-19T05:46:34.317408","CLASSIFICATION_TYPE":"U","MEAN_MOTION":13.52077091,"ECCENTRICITY":0.00104606,"INCLINATION":88.9897,"RA_OF_ASC_NODE":338.2134,"ARG_OF_PERICENTER":340.1169,"MEAN_ANOMALY":19.9574,"EPHEMERIS_TYPE":0,"NORAD_CAT_ID":69082,"ELEMENT_SET_NO":999,"REV_AT_EPOCH":947,"BSTAR":-2.2333393,"MEAN_MOTION_DOT":-0.01380257,"MEAN_MOTION_DDOT":0},{"OBJECT_NAME":"QIANFAN-137","OBJECT_ID":"2026-104L","EPOCH":"2026-07-18T20:13:46.026048","CLASSIFICATION_TYPE":"U","MEAN_MOTION":13.54552373,"ECCENTRICITY":0.00105959,"INCLINATION":88.9906,"RA_OF_ASC_NODE":338.1374,"ARG_OF_PERICENTER":33.9097,"MEAN_ANOMALY":326.2732,"EPHEMERIS_TYPE":0,"NORAD_CAT_ID":69083,"ELEMENT_SET_NO":999,"REV_AT_EPOCH":948,"BSTAR":-2.9753861,"MEAN_MOTION_DOT":-0.0189265,"MEAN_MOTION_DDOT":0},{"OBJECT_NAME":"QIANFAN-138","OBJECT_ID":"2026-104M","EPOCH":"2026-07-18T01:45:38.177856","CLASSIFICATION_TYPE":"U","MEAN_MOTION":13.49102339,"ECCENTRICITY":0.00076114,"INCLINATION":88.9882,"RA_OF_ASC_NODE":338.3358,"ARG_OF_PERICENTER":346.7774,"MEAN_ANOMALY":13.3175,"EPHEMERIS_TYPE":0,"NORAD_CAT_ID":69084,"ELEMENT_SET_NO":999,"REV_AT_EPOCH":931,"BSTAR":-3.5630011,"MEAN_MOTION_DOT":-0.02089634,"MEAN_MOTION_DDOT":0},{"OBJECT_NAME":"QIANFAN-139","OBJECT_ID":"2026-104N","EPOCH":"2026-07-19T02:33:08.403264","CLASSIFICATION_TYPE":"U","MEAN_MOTION":13.52360686,"ECCENTRICITY":0.00117232,"INCLINATION":88.9895,"RA_OF_ASC_NODE":338.2129,"ARG_OF_PERICENTER":9.3002,"MEAN_ANOMALY":350.8365,"EPHEMERIS_TYPE":0,"NORAD_CAT_ID":69085,"ELEMENT_SET_NO":999,"REV_AT_EPOCH":946,"BSTAR":-2.967322,"MEAN_MOTION_DOT":-0.01828147,"MEAN_MOTION_DDOT":0},{"OBJECT_NAME":"QIANFAN-140","OBJECT_ID":"2026-104P","EPOCH":"2026-07-18T03:27:29.369952","CLASSIFICATION_TYPE":"U","MEAN_MOTION":13.51179619,"ECCENTRICITY":0.00094858,"INCLINATION":88.9904,"RA_OF_ASC_NODE":338.3119,"ARG_OF_PERICENTER":26.7669,"MEAN_ANOMALY":333.397,"EPHEMERIS_TYPE":0,"NORAD_CAT_ID":69086,"ELEMENT_SET_NO":999,"REV_AT_EPOCH":933,"BSTAR":-3.4785919,"MEAN_MOTION_DOT":-0.02106488,"MEAN_MOTION_DDOT":0},{"OBJECT_NAME":"QIANFAN-141","OBJECT_ID":"2026-104Q","EPOCH":"2026-07-18T20:16:42.287232","CLASSIFICATION_TYPE":"U","MEAN_MOTION":13.54776569,"ECCENTRICITY":0.00038513,"INCLINATION":88.9897,"RA_OF_ASC_NODE":338.2129,"ARG_OF_PERICENTER":62.3354,"MEAN_ANOMALY":297.819,"EPHEMERIS_TYPE":0,"NORAD_CAT_ID":69087,"ELEMENT_SET_NO":999,"REV_AT_EPOCH":944,"BSTAR":-3.0367657,"MEAN_MOTION_DOT":-0.01934837,"MEAN_MOTION_DDOT":0},{"OBJECT_NAME":"QIANFAN-142","OBJECT_ID":"2026-104R","EPOCH":"2026-07-18T07:33:04.204800","CLASSIFICATION_TYPE":"U","MEAN_MOTION":13.52441994,"ECCENTRICITY":0.00132304,"INCLINATION":88.9899,"RA_OF_ASC_NODE":338.2634,"ARG_OF_PERICENTER":16.9346,"MEAN_ANOMALY":343.2245,"EPHEMERIS_TYPE":0,"NORAD_CAT_ID":69088,"ELEMENT_SET_NO":999,"REV_AT_EPOCH":937,"BSTAR":-3.3775587,"MEAN_MOTION_DOT":-0.02087979,"MEAN_MOTION_DDOT":0},{"OBJECT_NAME":"QIANFAN-143","OBJECT_ID":"2026-104S","EPOCH":"2026-07-18T18:40:10.389792","CLASSIFICATION_TYPE":"U","MEAN_MOTION":13.53042853,"ECCENTRICITY":0.0006071,"INCLINATION":88.9902,"RA_OF_ASC_NODE":338.2205,"ARG_OF_PERICENTER":337.7683,"MEAN_ANOMALY":22.3205,"EPHEMERIS_TYPE":0,"NORAD_CAT_ID":69089,"ELEMENT_SET_NO":999,"REV_AT_EPOCH":943,"BSTAR":-2.6588999,"MEAN_MOTION_DOT":-0.01665412,"MEAN_MOTION_DDOT":0},{"OBJECT_NAME":"QIANFAN-144","OBJECT_ID":"2026-104T","EPOCH":"2026-07-18T00:23:03.383232","CLASSIFICATION_TYPE":"U","MEAN_MOTION":13.5096419,"ECCENTRICITY":0.00078394,"INCLINATION":88.9892,"RA_OF_ASC_NODE":338.3129,"ARG_OF_PERICENTER":1.0993,"MEAN_ANOMALY":359.0174,"EPHEMERIS_TYPE":0,"NORAD_CAT_ID":69090,"ELEMENT_SET_NO":999,"REV_AT_EPOCH":932,"BSTAR":0.000022602854,"MEAN_MOTION_DOT":2.7e-7,"MEAN_MOTION_DDOT":0}]}
