QIANFAN-129             
1 69075U 26104C   26199.90283845 -.01809941  00000+0 -28594+1 0  9997
2 69075  88.9898 338.2018 0008955  35.1887 324.9856 13.54047251  9450
QIANFAN-130             
1 69076U 26104D   26199.90714606 -.01794504  00000+0 -31567+1 0  9994
2 69076  88.9901 338.2581 0005136 271.2929  88.7632 13.47146837  9425
QIANFAN-131             
1 69077U 26104E   26200.31244029 -.01800367  00000+0 -28956+1 0  9993
2 69077  88.9888 338.1854 0012565   6.0188 354.1113 13.52873435  9495
QIANFAN-132             
1 69078U 26104F   26199.91527201 -.01733275  00000+0 -30578+1 0  9999
2 69078  88.9896 338.2773 0007373 162.1104 198.0305 13.46809849  9410
QIANFAN-133             
1 69079U 26104G   26199.89857954 -.01465441  00000+0 -23685+1 0  9996
2 69079  88.9898 338.2389 0006949  20.9662 339.1774 13.52401034  9424
QIANFAN-134             
1 69080U 26104H   26199.96753687 -.01854369  00000+0 -29359+1 0  9999
2 69080  88.9900 338.2477 0011963  13.7858 346.3619 13.54004893  9430
QIANFAN-135             
1 69081U 26104J   26199.86126907 -.01854560  00000+0 -30750+1 0  9998
2 69081  88.9896 338.2502 0008421  18.3494 341.7960 13.51078767  9421
QIANFAN-136             
1 69082U 26104K   26200.24067497 -.01380257  00000+0 -22333+1 0  9997
2 69082  88.9897 338.2134 0010460 340.1169  19.9574 13.52077091  9475
QIANFAN-137             
1 69083U 26104L   26199.84289382 -.01892650  00000+0 -29754+1 0  9999
2 69083  88.9906 338.1374 0010595  33.9097 326.2732 13.54552373  9482
QIANFAN-138             
1 69084U 26104M   26199.07335854 -.02089634  00000+0 -35630+1 0  9992
2 69084  88.9882 338.3358 0007611 346.7774  13.3175 13.49102339  9316
QIANFAN-139             
1 69085U 26104N   26200.10634726 -.01828147  00000+0 -29673+1 0  9999
2 69085  88.9895 338.2129 0011723   9.3002 350.8365 13.52360686  9462
QIANFAN-140             
1 69086U 26104P   26199.14408993 -.02106488  00000+0 -34786+1 0  9995
2 69086  88.9904 338.3119 0009485  26.7669 333.3970 13.51179619  9335
QIANFAN-141             
1 69087U 26104Q   26199.84493388 -.01934837  00000+0 -30368+1 0  9993
2 69087  88.9897 338.2129 0003851  62.3354 297.8190 13.54776569  9445
QIANFAN-142             
1 69088U 26104R   26199.31463200 -.02087979  00000+0 -33776+1 0  9999
2 69088  88.9899 338.2634 0013230  16.9346 343.2245 13.52441994  9375
QIANFAN-143             
1 69089U 26104S   26199.77789803 -.01665412  00000+0 -26589+1 0  9997
2 69089  88.9902 338.2205 0006071 337.7683  22.3205 13.53042853  9438
QIANFAN-144             
1 69090U 26104T   26199.01601138  .00000027  00000+0  22603-4 0  9999
2 69090  88.9892 338.3129 0007839   1.0993 359.0174 13.50964190  9329
